CCSDS_OMM_VERS = 2.0
CREATION_DATE  = 
ORIGINATOR     = 

OBJECT_NAME    = STARLINK-36826
OBJECT_ID      = 2026-035G
CENTER_NAME    = EARTH
REF_FRAME      = TEME
TIME_SYSTEM    = UTC
MEAN_ELEMENT_THEORY = SGP/SGP4

EPOCH          = 2026-03-03T14:00:03.000384
MEAN_MOTION    = 16.00854942
ECCENTRICITY   = .0001136
INCLINATION    = 97.2777
RA_OF_ASC_NODE = 354.4416
ARG_OF_PERICENTER = 85.5217
MEAN_ANOMALY   = 14.0731

EPHEMERIS_TYPE = 0
CLASSIFICATION_TYPE = U
NORAD_CAT_ID   = 67885
ELEMENT_SET_NO = 999
REV_AT_EPOCH   = 277
BSTAR          = -.1628E-2
MEAN_MOTION_DOT = -.86426E-2
MEAN_MOTION_DDOT = .25249E-3

CCSDS_OMM_VERS = 2.0
CREATION_DATE  = 
ORIGINATOR     = 

OBJECT_NAME    = STARLINK-36390
OBJECT_ID      = 2026-035H
CENTER_NAME    = EARTH
REF_FRAME      = TEME
TIME_SYSTEM    = UTC
MEAN_ELEMENT_THEORY = SGP/SGP4

EPOCH          = 2026-03-03T14:00:03.000384
MEAN_MOTION    = 16.00978370
ECCENTRICITY   = .0001202
INCLINATION    = 97.2774
RA_OF_ASC_NODE = 354.4431
ARG_OF_PERICENTER = 94.7543
MEAN_ANOMALY   = 8.6027

EPHEMERIS_TYPE = 0
CLASSIFICATION_TYPE = U
NORAD_CAT_ID   = 67886
ELEMENT_SET_NO = 999
REV_AT_EPOCH   = 282
BSTAR          = -.16452E-2
MEAN_MOTION_DOT = -.879501E-2
MEAN_MOTION_DDOT = .26119E-3

CCSDS_OMM_VERS = 2.0
CREATION_DATE  = 
ORIGINATOR     = 

OBJECT_NAME    = STARLINK-36368
OBJECT_ID      = 2026-035J
CENTER_NAME    = EARTH
REF_FRAME      = TEME
TIME_SYSTEM    = UTC
MEAN_ELEMENT_THEORY = SGP/SGP4

EPOCH          = 2026-03-03T14:00:03.000384
MEAN_MOTION    = 16.01099817
ECCENTRICITY   = .0001292
INCLINATION    = 97.2772
RA_OF_ASC_NODE = 354.4446
ARG_OF_PERICENTER = 106.2695
MEAN_ANOMALY   = 0.6544

EPHEMERIS_TYPE = 0
CLASSIFICATION_TYPE = U
NORAD_CAT_ID   = 67887
ELEMENT_SET_NO = 999
REV_AT_EPOCH   = 277
BSTAR          = -.16897E-2
MEAN_MOTION_DOT = -.909364E-2
MEAN_MOTION_DDOT = .27828E-3

CCSDS_OMM_VERS = 2.0
CREATION_DATE  = 
ORIGINATOR     = 

OBJECT_NAME    = STARLINK-36801
OBJECT_ID      = 2026-035K
CENTER_NAME    = EARTH
REF_FRAME      = TEME
TIME_SYSTEM    = UTC
MEAN_ELEMENT_THEORY = SGP/SGP4

EPOCH          = 2026-03-03T14:00:03.000384
MEAN_MOTION    = 16.01232787
ECCENTRICITY   = .000124
INCLINATION    = 97.2770
RA_OF_ASC_NODE = 354.4460
ARG_OF_PERICENTER = 74.0150
MEAN_ANOMALY   = 36.3277

EPHEMERIS_TYPE = 0
CLASSIFICATION_TYPE = U
NORAD_CAT_ID   = 67888
ELEMENT_SET_NO = 999
REV_AT_EPOCH   = 277
BSTAR          = -.17733E-2
MEAN_MOTION_DOT = -.961273E-2
MEAN_MOTION_DDOT = .30893E-3

CCSDS_OMM_VERS = 2.0
CREATION_DATE  = 
ORIGINATOR     = 

OBJECT_NAME    = STARLINK-36372
OBJECT_ID      = 2026-035L
CENTER_NAME    = EARTH
REF_FRAME      = TEME
TIME_SYSTEM    = UTC
MEAN_ELEMENT_THEORY = SGP/SGP4

EPOCH          = 2026-03-03T14:00:03.000384
MEAN_MOTION    = 16.01451415
ECCENTRICITY   = .0001267
INCLINATION    = 97.2766
RA_OF_ASC_NODE = 354.4486
ARG_OF_PERICENTER = 76.2123
MEAN_ANOMALY   = 40.6975

EPHEMERIS_TYPE = 0
CLASSIFICATION_TYPE = U
NORAD_CAT_ID   = 67889
ELEMENT_SET_NO = 999
REV_AT_EPOCH   = 277
BSTAR          = -.18585E-2
MEAN_MOTION_DOT = -.1019723E-1
MEAN_MOTION_DDOT = .3455E-3

CCSDS_OMM_VERS = 2.0
CREATION_DATE  = 
ORIGINATOR     = 

OBJECT_NAME    = STARLINK-36363
OBJECT_ID      = 2026-035M
CENTER_NAME    = EARTH
REF_FRAME      = TEME
TIME_SYSTEM    = UTC
MEAN_ELEMENT_THEORY = SGP/SGP4

EPOCH          = 2026-03-03T14:00:03.000384
MEAN_MOTION    = 16.01360578
ECCENTRICITY   = .0001312
INCLINATION    = 97.2770
RA_OF_ASC_NODE = 354.4477
ARG_OF_PERICENTER = 98.2889
MEAN_ANOMALY   = 15.9482

EPHEMERIS_TYPE = 0
CLASSIFICATION_TYPE = U
NORAD_CAT_ID   = 67890
ELEMENT_SET_NO = 999
REV_AT_EPOCH   = 277
BSTAR          = -.18379E-2
MEAN_MOTION_DOT = -.1003265E-1
MEAN_MOTION_DDOT = .33489E-3

CCSDS_OMM_VERS = 2.0
CREATION_DATE  = 
ORIGINATOR     = 

OBJECT_NAME    = STARLINK-36816
OBJECT_ID      = 2026-035N
CENTER_NAME    = EARTH
REF_FRAME      = TEME
TIME_SYSTEM    = UTC
MEAN_ELEMENT_THEORY = SGP/SGP4

EPOCH          = 2026-03-03T14:00:03.000384
MEAN_MOTION    = 16.02855162
ECCENTRICITY   = .0001212
INCLINATION    = 97.2747
RA_OF_ASC_NODE = 354.4682
ARG_OF_PERICENTER = 93.6864
MEAN_ANOMALY   = 72.8164

EPHEMERIS_TYPE = 0
CLASSIFICATION_TYPE = U
NORAD_CAT_ID   = 67891
ELEMENT_SET_NO = 999
REV_AT_EPOCH   = 266
BSTAR          = -.17578E-2
MEAN_MOTION_DOT = -.1046168E-1
MEAN_MOTION_DDOT = .3682E-3

CCSDS_OMM_VERS = 2.0
CREATION_DATE  = 
ORIGINATOR     = 

OBJECT_NAME    = STARLINK-36813
OBJECT_ID      = 2026-035P
CENTER_NAME    = EARTH
REF_FRAME      = TEME
TIME_SYSTEM    = UTC
MEAN_ELEMENT_THEORY = SGP/SGP4

EPOCH          = 2026-03-03T14:00:03.000384
MEAN_MOTION    = 16.02198218
ECCENTRICITY   = .0001374
INCLINATION    = 97.2747
RA_OF_ASC_NODE = 354.4590
ARG_OF_PERICENTER = 106.1734
MEAN_ANOMALY   = 38.2508

EPHEMERIS_TYPE = 0
CLASSIFICATION_TYPE = U
NORAD_CAT_ID   = 67892
ELEMENT_SET_NO = 999
REV_AT_EPOCH   = 277
BSTAR          = -.18207E-2
MEAN_MOTION_DOT = -.1042896E-1
MEAN_MOTION_DDOT = .36328E-3

CCSDS_OMM_VERS = 2.0
CREATION_DATE  = 
ORIGINATOR     = 

OBJECT_NAME    = STARLINK-36803
OBJECT_ID      = 2026-035Q
CENTER_NAME    = EARTH
REF_FRAME      = TEME
TIME_SYSTEM    = UTC
MEAN_ELEMENT_THEORY = SGP/SGP4

EPOCH          = 2026-03-03T14:00:03.000384
MEAN_MOTION    = 16.01562898
ECCENTRICITY   = .0001183
INCLINATION    = 97.2765
RA_OF_ASC_NODE = 354.4504
ARG_OF_PERICENTER = 79.4074
MEAN_ANOMALY   = 41.6774

EPHEMERIS_TYPE = 0
CLASSIFICATION_TYPE = U
NORAD_CAT_ID   = 67893
ELEMENT_SET_NO = 999
REV_AT_EPOCH   = 277
BSTAR          = -.18715E-2
MEAN_MOTION_DOT = -.1033313E-1
MEAN_MOTION_DDOT = .35453E-3

CCSDS_OMM_VERS = 2.0
CREATION_DATE  = 
ORIGINATOR     = 

OBJECT_NAME    = STARLINK-36846
OBJECT_ID      = 2026-035R
CENTER_NAME    = EARTH
REF_FRAME      = TEME
TIME_SYSTEM    = UTC
MEAN_ELEMENT_THEORY = SGP/SGP4

EPOCH          = 2026-03-03T14:00:03.000384
MEAN_MOTION    = 16.01785244
ECCENTRICITY   = .0001304
INCLINATION    = 97.2762
RA_OF_ASC_NODE = 354.4539
ARG_OF_PERICENTER = 97.9758
MEAN_ANOMALY   = 31.6036

EPHEMERIS_TYPE = 0
CLASSIFICATION_TYPE = U
NORAD_CAT_ID   = 67894
ELEMENT_SET_NO = 999
REV_AT_EPOCH   = 277
BSTAR          = -.18638E-2
MEAN_MOTION_DOT = -.1042309E-1
MEAN_MOTION_DDOT = .36118E-3

CCSDS_OMM_VERS = 2.0
CREATION_DATE  = 
ORIGINATOR     = 

OBJECT_NAME    = STARLINK-36866
OBJECT_ID      = 2026-035S
CENTER_NAME    = EARTH
REF_FRAME      = TEME
TIME_SYSTEM    = UTC
MEAN_ELEMENT_THEORY = SGP/SGP4

EPOCH          = 2026-03-03T14:00:03.000384
MEAN_MOTION    = 16.01888266
ECCENTRICITY   = .0001201
INCLINATION    = 97.2760
RA_OF_ASC_NODE = 354.4554
ARG_OF_PERICENTER = 88.8027
MEAN_ANOMALY   = 44.4623

EPHEMERIS_TYPE = 0
CLASSIFICATION_TYPE = U
NORAD_CAT_ID   = 67895
ELEMENT_SET_NO = 999
REV_AT_EPOCH   = 277
BSTAR          = -.1858E-2
MEAN_MOTION_DOT = -.1045244E-1
MEAN_MOTION_DDOT = .3635E-3

CCSDS_OMM_VERS = 2.0
CREATION_DATE  = 
ORIGINATOR     = 

OBJECT_NAME    = STARLINK-36877
OBJECT_ID      = 2026-035T
CENTER_NAME    = EARTH
REF_FRAME      = TEME
TIME_SYSTEM    = UTC
MEAN_ELEMENT_THEORY = SGP/SGP4

EPOCH          = 2026-03-03T14:00:03.000384
MEAN_MOTION    = 16.01676953
ECCENTRICITY   = .00012
INCLINATION    = 97.2761
RA_OF_ASC_NODE = 354.4520
ARG_OF_PERICENTER = 73.1923
MEAN_ANOMALY   = 52.3197

EPHEMERIS_TYPE = 0
CLASSIFICATION_TYPE = U
NORAD_CAT_ID   = 67896
ELEMENT_SET_NO = 999
REV_AT_EPOCH   = 277
BSTAR          = -.18709E-2
MEAN_MOTION_DOT = -.1039759E-1
MEAN_MOTION_DDOT = .3591E-3

